COSMOS 2588             
1 64095U 25109A   26068.81179522  .00009169  00000+0  32611-3 0  9998
2 64095  72.9704  73.5401 0005019 308.6780  51.3966 15.29122656 44425
STARLINK-35329          
1 65908U 25224AC  26068.22542313  .00042867  00000+0  14505-2 0  9990
2 65908  53.1616  13.4660 0001157  87.6875 272.4259 15.30213963 24793
